CCSDS_OMM_VERS = 2.0
CREATION_DATE  = 
ORIGINATOR     = 

OBJECT_NAME    = IDEFIX & ARIANE 42P R/B
OBJECT_ID      = 2002-021B
CENTER_NAME    = EARTH
REF_FRAME      = TEME
TIME_SYSTEM    = UTC
MEAN_ELEMENT_THEORY = SGP/SGP4

EPOCH          = 2026-01-04T22:30:04.379616
MEAN_MOTION    = 14.30971540
ECCENTRICITY   = .00122627
INCLINATION    = 98.5810
RA_OF_ASC_NODE = 304.3305
ARG_OF_PERICENTER = 20.1575
MEAN_ANOMALY   = 340.0090

EPHEMERIS_TYPE = 0
CLASSIFICATION_TYPE = U
NORAD_CAT_ID   = 27422
ELEMENT_SET_NO = 999
REV_AT_EPOCH   = 23490
BSTAR          = .19589111E-3
MEAN_MOTION_DOT = .472E-5
MEAN_MOTION_DDOT = 0

CCSDS_OMM_VERS = 2.0
CREATION_DATE  = 
ORIGINATOR     = 

OBJECT_NAME    = AQUA
OBJECT_ID      = 2002-022A
CENTER_NAME    = EARTH
REF_FRAME      = TEME
TIME_SYSTEM    = UTC
MEAN_ELEMENT_THEORY = SGP/SGP4

EPOCH          = 2026-01-03T22:31:10.390080
MEAN_MOTION    = 14.61796291
ECCENTRICITY   = .0002003
INCLINATION    = 98.4067
RA_OF_ASC_NODE = 330.1809
ARG_OF_PERICENTER = 92.1713
MEAN_ANOMALY   = 343.8415

EPHEMERIS_TYPE = 0
CLASSIFICATION_TYPE = U
NORAD_CAT_ID   = 27424
ELEMENT_SET_NO = 999
REV_AT_EPOCH   = 25927
BSTAR          = .39553E-3
MEAN_MOTION_DOT = .1925E-4
MEAN_MOTION_DDOT = 0

CCSDS_OMM_VERS = 2.0
CREATION_DATE  = 
ORIGINATOR     = 

OBJECT_NAME    = CZ-4B R/B
OBJECT_ID      = 2002-024C
CENTER_NAME    = EARTH
REF_FRAME      = TEME
TIME_SYSTEM    = UTC
MEAN_ELEMENT_THEORY = SGP/SGP4

EPOCH          = 2026-01-04T23:44:41.992224
MEAN_MOTION    = 14.14533743
ECCENTRICITY   = .00498284
INCLINATION    = 98.8961
RA_OF_ASC_NODE = 58.6760
ARG_OF_PERICENTER = 203.0072
MEAN_ANOMALY   = 225.7138

EPHEMERIS_TYPE = 0
CLASSIFICATION_TYPE = U
NORAD_CAT_ID   = 27432
ELEMENT_SET_NO = 999
REV_AT_EPOCH   = 22023
BSTAR          = .76954104E-4
MEAN_MOTION_DOT = .105E-5
MEAN_MOTION_DDOT = 0

CCSDS_OMM_VERS = 2.0
CREATION_DATE  = 
ORIGINATOR     = 

OBJECT_NAME    = MIDORI II (ADEOS-II)
OBJECT_ID      = 2002-056A
CENTER_NAME    = EARTH
REF_FRAME      = TEME
TIME_SYSTEM    = UTC
MEAN_ELEMENT_THEORY = SGP/SGP4

EPOCH          = 2026-01-04T21:18:54.461376
MEAN_MOTION    = 14.29227217
ECCENTRICITY   = .00012838
INCLINATION    = 98.7665
RA_OF_ASC_NODE = 322.9697
ARG_OF_PERICENTER = 134.2200
MEAN_ANOMALY   = 225.9087

EPHEMERIS_TYPE = 0
CLASSIFICATION_TYPE = U
NORAD_CAT_ID   = 27597
ELEMENT_SET_NO = 999
REV_AT_EPOCH   = 20118
BSTAR          = .21477175E-3
MEAN_MOTION_DOT = .501E-5
MEAN_MOTION_DDOT = 0

CCSDS_OMM_VERS = 2.0
CREATION_DATE  = 
ORIGINATOR     = 

OBJECT_NAME    = H-2A R/B
OBJECT_ID      = 2002-056E
CENTER_NAME    = EARTH
REF_FRAME      = TEME
TIME_SYSTEM    = UTC
MEAN_ELEMENT_THEORY = SGP/SGP4

EPOCH          = 2026-01-04T22:07:32.082240
MEAN_MOTION    = 14.33702407
ECCENTRICITY   = .00702477
INCLINATION    = 98.3095
RA_OF_ASC_NODE = 327.7598
ARG_OF_PERICENTER = 352.5998
MEAN_ANOMALY   = 73.6843

EPHEMERIS_TYPE = 0
CLASSIFICATION_TYPE = U
NORAD_CAT_ID   = 27601
ELEMENT_SET_NO = 999
REV_AT_EPOCH   = 20497
BSTAR          = .22702196E-3
MEAN_MOTION_DOT = .606E-5
MEAN_MOTION_DDOT = 0

CCSDS_OMM_VERS = 2.0
CREATION_DATE  = 
ORIGINATOR     = 

OBJECT_NAME    = CZ-4B R/B
OBJECT_ID      = 2003-049C
CENTER_NAME    = EARTH
REF_FRAME      = TEME
TIME_SYSTEM    = UTC
MEAN_ELEMENT_THEORY = SGP/SGP4

EPOCH          = 2026-01-04T23:28:38.821440
MEAN_MOTION    = 14.54937522
ECCENTRICITY   = .00492624
INCLINATION    = 98.6803
RA_OF_ASC_NODE = 357.4222
ARG_OF_PERICENTER = 66.6240
MEAN_ANOMALY   = 294.0127

EPHEMERIS_TYPE = 0
CLASSIFICATION_TYPE = U
NORAD_CAT_ID   = 28059
ELEMENT_SET_NO = 999
REV_AT_EPOCH   = 17733
BSTAR          = .15938196E-3
MEAN_MOTION_DOT = .645E-5
MEAN_MOTION_DDOT = 0

CCSDS_OMM_VERS = 2.0
CREATION_DATE  = 
ORIGINATOR     = 

OBJECT_NAME    = CZ-2C R/B
OBJECT_ID      = 2004-012C
CENTER_NAME    = EARTH
REF_FRAME      = TEME
TIME_SYSTEM    = UTC
MEAN_ELEMENT_THEORY = SGP/SGP4

EPOCH          = 2026-01-04T21:13:26.644224
MEAN_MOTION    = 15.57592083
ECCENTRICITY   = .00167414
INCLINATION    = 97.7374
RA_OF_ASC_NODE = 64.4453
ARG_OF_PERICENTER = 182.0777
MEAN_ANOMALY   = 178.0411

EPHEMERIS_TYPE = 0
CLASSIFICATION_TYPE = U
NORAD_CAT_ID   = 28222
ELEMENT_SET_NO = 999
REV_AT_EPOCH   = 19432
BSTAR          = .63825108E-3
MEAN_MOTION_DOT = .47476E-3
MEAN_MOTION_DDOT = 0

CCSDS_OMM_VERS = 2.0
CREATION_DATE  = 
ORIGINATOR     = 

OBJECT_NAME    = SL-16 R/B
OBJECT_ID      = 2004-021B
CENTER_NAME    = EARTH
REF_FRAME      = TEME
TIME_SYSTEM    = UTC
MEAN_ELEMENT_THEORY = SGP/SGP4

EPOCH          = 2026-01-04T09:23:23.324352
MEAN_MOTION    = 14.14587860
ECCENTRICITY   = .00038918
INCLINATION    = 71.0016
RA_OF_ASC_NODE = 7.4282
ARG_OF_PERICENTER = 162.3314
MEAN_ANOMALY   = 197.7944

EPHEMERIS_TYPE = 0
CLASSIFICATION_TYPE = U
NORAD_CAT_ID   = 28353
ELEMENT_SET_NO = 999
REV_AT_EPOCH   = 11374
BSTAR          = .229844E-3
MEAN_MOTION_DOT = .394E-5
MEAN_MOTION_DDOT = 0

CCSDS_OMM_VERS = 2.0
CREATION_DATE  = 
ORIGINATOR     = 

OBJECT_NAME    = CZ-4B R/B
OBJECT_ID      = 2004-035C
CENTER_NAME    = EARTH
REF_FRAME      = TEME
TIME_SYSTEM    = UTC
MEAN_ELEMENT_THEORY = SGP/SGP4

EPOCH          = 2026-01-04T14:51:57.667680
MEAN_MOTION    = 15.27825651
ECCENTRICITY   = .0032478
INCLINATION    = 97.3574
RA_OF_ASC_NODE = 39.6609
ARG_OF_PERICENTER = 193.1420
MEAN_ANOMALY   = 166.8977

EPHEMERIS_TYPE = 0
CLASSIFICATION_TYPE = U
NORAD_CAT_ID   = 28415
ELEMENT_SET_NO = 999
REV_AT_EPOCH   = 17012
BSTAR          = .36178E-3
MEAN_MOTION_DOT = .9911E-4
MEAN_MOTION_DDOT = 0

CCSDS_OMM_VERS = 2.0
CREATION_DATE  = 
ORIGINATOR     = 

OBJECT_NAME    = CZ-2C R/B
OBJECT_ID      = 2004-046B
CENTER_NAME    = EARTH
REF_FRAME      = TEME
TIME_SYSTEM    = UTC
MEAN_ELEMENT_THEORY = SGP/SGP4

EPOCH          = 2026-01-04T17:56:34.625472
MEAN_MOTION    = 14.26959601
ECCENTRICITY   = .01392355
INCLINATION    = 98.1998
RA_OF_ASC_NODE = 283.6974
ARG_OF_PERICENTER = 344.4424
MEAN_ANOMALY   = 15.2499

EPHEMERIS_TYPE = 0
CLASSIFICATION_TYPE = U
NORAD_CAT_ID   = 28480
ELEMENT_SET_NO = 999
REV_AT_EPOCH   = 9938
BSTAR          = .20273969E-3
MEAN_MOTION_DOT = .504E-5
MEAN_MOTION_DDOT = 0

CCSDS_OMM_VERS = 2.0
CREATION_DATE  = 
ORIGINATOR     = 

OBJECT_NAME    = ARIANE 5 R/B
OBJECT_ID      = 2004-049H
CENTER_NAME    = EARTH
REF_FRAME      = TEME
TIME_SYSTEM    = UTC
MEAN_ELEMENT_THEORY = SGP/SGP4

EPOCH          = 2026-01-04T23:10:42.020832
MEAN_MOTION    = 14.85091851
ECCENTRICITY   = .00840355
INCLINATION    = 98.2532
RA_OF_ASC_NODE = 171.0831
ARG_OF_PERICENTER = 196.8713
MEAN_ANOMALY   = 162.9703

EPHEMERIS_TYPE = 0
CLASSIFICATION_TYPE = U
NORAD_CAT_ID   = 28499
ELEMENT_SET_NO = 999
REV_AT_EPOCH   = 13633
BSTAR          = .1869793E-3
MEAN_MOTION_DOT = .1638E-4
MEAN_MOTION_DDOT = 0

CCSDS_OMM_VERS = 2.0
CREATION_DATE  = 
ORIGINATOR     = 

OBJECT_NAME    = CZ-2D R/B
OBJECT_ID      = 2005-024B
CENTER_NAME    = EARTH
REF_FRAME      = TEME
TIME_SYSTEM    = UTC
MEAN_ELEMENT_THEORY = SGP/SGP4

EPOCH          = 2026-01-04T23:15:14.103072
MEAN_MOTION    = 15.54823330
ECCENTRICITY   = .00030365
INCLINATION    = 97.3617
RA_OF_ASC_NODE = 18.0481
ARG_OF_PERICENTER = 244.0954
MEAN_ANOMALY   = 115.9987

EPHEMERIS_TYPE = 0
CLASSIFICATION_TYPE = U
NORAD_CAT_ID   = 28738
ELEMENT_SET_NO = 999
REV_AT_EPOCH   = 12986
BSTAR          = .52748934E-3
MEAN_MOTION_DOT = .35142E-3
MEAN_MOTION_DDOT = 0

