IDEFIX & ARIANE 42P R/B 
1 27422U 02021B   26004.93755069  .00000472  00000+0  19589-3 0  9995
2 27422  98.5810 304.3305 0012262  20.1575 340.0090 14.30971540234909
AQUA                    
1 27424U 02022A   26003.93831470  .00001925  00000+0  39553-3 0  9995
2 27424  98.4067 330.1809 0002003  92.1713 343.8415 14.61796291259276
CZ-4B R/B               
1 27432U 02024C   26004.98937491  .00000105  00000+0  76954-4 0  9998
2 27432  98.8961  58.6760 0049828 203.0072 225.7138 14.14533743220230
MIDORI II (ADEOS-II)    
1 27597U 02056A   26004.88813034  .00000501  00000+0  21477-3 0  9999
2 27597  98.7665 322.9697 0001283 134.2200 225.9087 14.29227217201189
H-2A R/B                
1 27601U 02056E   26004.92189910  .00000606  00000+0  22702-3 0  9997
2 27601  98.3095 327.7598 0070247 352.5998  73.6843 14.33702407204978
CZ-4B R/B               
1 28059U 03049C   26004.97822710  .00000645  00000+0  15938-3 0  9991
2 28059  98.6803 357.4222 0049262  66.6240 294.0127 14.54937522177330
CZ-2C R/B               
1 28222U 04012C   26004.88433616  .00047476  00000+0  63825-3 0  9998
2 28222  97.7374  64.4453 0016741 182.0777 178.0411 15.57592083194328
SL-16 R/B               
1 28353U 04021B   26004.39124218  .00000394  00000+0  22984-3 0  9993
2 28353  71.0016   7.4282 0003891 162.3314 197.7944 14.14587860113743
CZ-4B R/B               
1 28415U 04035C   26004.61941745  .00009911  00000+0  36178-3 0  9998
2 28415  97.3574  39.6609 0032478 193.1420 166.8977 15.27825651170121
CZ-2C R/B               
1 28480U 04046B   26004.74762298  .00000504  00000+0  20274-3 0  9999
2 28480  98.1998 283.6974 0139235 344.4424  15.2499 14.26959601 99387
ARIANE 5 R/B            
1 28499U 04049H   26004.96576413  .00001638  00000+0  18698-3 0  9994
2 28499  98.2532 171.0831 0084035 196.8713 162.9703 14.85091851136335
CZ-2D R/B               
1 28738U 05024B   26004.96891323  .00035142  00000+0  52749-3 0  9996
2 28738  97.3617  18.0481 0003036 244.0954 115.9987 15.54823330129865
